{"type": "FeatureCollection", "features": [{"type": "Feature", "properties": {"osm_id": 828820634, "highway": "traffic_signals", "traffic_signals": "signal"}, "geometry": {"type": "Point", "coordinates": [-73.6332891, 4.1110371]}}, {"type": "Feature", "properties": {"osm_id": 1135712289, "highway": "traffic_signals"}, "geometry": {"type": "Point", "coordinates": [-73.6335602, 4.1236269]}}, {"type": "Feature", "properties": {"osm_id": 1135712475, "highway": "traffic_signals", "traffic_signals": "signal"}, "geometry": {"type": "Point", "coordinates": [-73.6377146, 4.1513249]}}, {"type": "Feature", "properties": {"osm_id": 1135712981, "highway": "traffic_signals"}, "geometry": {"type": "Point", "coordinates": [-73.628342, 4.1520968]}}, {"type": "Feature", "properties": {"osm_id": 1135713404, "highway": "traffic_signals"}, "geometry": {"type": "Point", "coordinates": [-73.6284609, 4.1521022]}}, {"type": "Feature", "properties": {"osm_id": 1135714219, "highway": "traffic_signals", "traffic_signals": "traffic_lights", "traffic_signals:direction": "both"}, "geometry": {"type": "Point", "coordinates": [-73.6291828, 4.1315506]}}, {"type": "Feature", "properties": {"osm_id": 1135715815, "crossing": "traffic_signals", "highway": "traffic_signals"}, "geometry": {"type": "Point", "coordinates": [-73.6285035, 4.1491566]}}, {"type": "Feature", "properties": {"osm_id": 1135715834, "highway": "traffic_signals"}, "geometry": {"type": "Point", "coordinates": [-73.6286133, 4.1491736]}}, {"type": "Feature", "properties": {"osm_id": 1135715895, "highway": "traffic_signals"}, "geometry": {"type": "Point", "coordinates": [-73.6337, 4.1328045]}}, {"type": "Feature", "properties": {"osm_id": 1135717203, "highway": "traffic_signals", "traffic_signals:direction": "forward"}, "geometry": {"type": "Point", "coordinates": [-73.6172134, 4.1472086]}}, {"type": "Feature", "properties": {"osm_id": 1135717547, "highway": "traffic_signals", "traffic_signals": "traffic_lights", "traffic_signals:direction": "both"}, "geometry": {"type": "Point", "coordinates": [-73.6279861, 4.1313455]}}, {"type": "Feature", "properties": {"osm_id": 1135717616, "highway": "traffic_signals"}, "geometry": {"type": "Point", "coordinates": [-73.62942, 4.147363]}}, {"type": "Feature", "properties": {"osm_id": 1135718465, "highway": "traffic_signals", "traffic_signals": "traffic_lights", "traffic_signals:direction": "both"}, "geometry": {"type": "Point", "coordinates": [-73.6289945, 4.131269]}}, {"type": "Feature", "properties": {"osm_id": 1135718789, "highway": "traffic_signals"}, "geometry": {"type": "Point", "coordinates": [-73.6209687, 4.1411852]}}, {"type": "Feature", "properties": {"osm_id": 1135721215, "highway": "traffic_signals"}, "geometry": {"type": "Point", "coordinates": [-73.6336058, 4.1235359]}}, {"type": "Feature", "properties": {"osm_id": 1135728749, "highway": "traffic_signals"}, "geometry": {"type": "Point", "coordinates": [-73.6508087, 4.1071181]}}, {"type": "Feature", "properties": {"osm_id": 1135728905, "highway": "traffic_signals", "traffic_signals": "traffic_lights", "traffic_signals:direction": "both"}, "geometry": {"type": "Point", "coordinates": [-73.6290688, 4.1314101]}}, {"type": "Feature", "properties": {"osm_id": 1135729244, "highway": "traffic_signals"}, "geometry": {"type": "Point", "coordinates": [-73.6285073, 4.1490397]}}, {"type": "Feature", "properties": {"osm_id": 1135730802, "highway": "traffic_signals", "traffic_signals": "traffic_lights"}, "geometry": {"type": "Point", "coordinates": [-73.622482, 4.134763]}}, {"type": "Feature", "properties": {"osm_id": 1135730829, "highway": "traffic_signals", "traffic_signals:direction": "forward"}, "geometry": {"type": "Point", "coordinates": [-73.6304357, 4.131699]}}, {"type": "Feature", "properties": {"osm_id": 1135730994, "highway": "traffic_signals", "traffic_signals:direction": "forward"}, "geometry": {"type": "Point", "coordinates": [-73.6172839, 4.1469181]}}, {"type": "Feature", "properties": {"osm_id": 1135731081, "highway": "traffic_signals", "traffic_signals": "signal"}, "geometry": {"type": "Point", "coordinates": [-73.636351, 4.1469576]}}, {"type": "Feature", "properties": {"osm_id": 1135731119, "highway": "traffic_signals", "traffic_signals:direction": "forward"}, "geometry": {"type": "Point", "coordinates": [-73.6198893, 4.1476361]}}, {"type": "Feature", "properties": {"osm_id": 1135731267, "highway": "traffic_signals", "traffic_signals:direction": "forward"}, "geometry": {"type": "Point", "coordinates": [-73.619905, 4.1475424]}}, {"type": "Feature", "properties": {"osm_id": 1135731986, "highway": "traffic_signals", "traffic_signals": "traffic_lights", "traffic_signals:direction": "forward"}, "geometry": {"type": "Point", "coordinates": [-73.6200264, 4.1475613]}}, {"type": "Feature", "properties": {"osm_id": 1135732756, "crossing:markings": "zebra", "highway": "traffic_signals", "tactile_paving": "no", "traffic_signals": "signal"}, "geometry": {"type": "Point", "coordinates": [-73.6357176, 4.1461595]}}, {"type": "Feature", "properties": {"osm_id": 1135732843, "highway": "traffic_signals", "traffic_signals": "signal"}, "geometry": {"type": "Point", "coordinates": [-73.6354719, 4.1525475]}}, {"type": "Feature", "properties": {"osm_id": 1135733938, "highway": "traffic_signals"}, "geometry": {"type": "Point", "coordinates": [-73.6286154, 4.1490533]}}, {"type": "Feature", "properties": {"osm_id": 1135734302, "highway": "traffic_signals", "traffic_signals": "signal", "traffic_signals:direction": "both"}, "geometry": {"type": "Point", "coordinates": [-73.638292, 4.1298447]}}, {"type": "Feature", "properties": {"osm_id": 1135734457, "highway": "traffic_signals", "traffic_signals:direction": "forward"}, "geometry": {"type": "Point", "coordinates": [-73.6172976, 4.1471407]}}, {"type": "Feature", "properties": {"osm_id": 1135734951, "highway": "traffic_signals", "traffic_signals": "traffic_lights", "traffic_signals:direction": "forward"}, "geometry": {"type": "Point", "coordinates": [-73.6213428, 4.1389688]}}, {"type": "Feature", "properties": {"osm_id": 1135735586, "highway": "traffic_signals"}, "geometry": {"type": "Point", "coordinates": [-73.6210984, 4.1411753]}}, {"type": "Feature", "properties": {"osm_id": 1135735608, "highway": "traffic_signals", "traffic_signals": "signal"}, "geometry": {"type": "Point", "coordinates": [-73.6357458, 4.1460196]}}, {"type": "Feature", "properties": {"osm_id": 1135735741, "highway": "traffic_signals", "traffic_signals": "traffic_lights"}, "geometry": {"type": "Point", "coordinates": [-73.6225592, 4.1348601]}}, {"type": "Feature", "properties": {"osm_id": 1135736405, "highway": "traffic_signals"}, "geometry": {"type": "Point", "coordinates": [-73.6546729, 4.1090591]}}, {"type": "Feature", "properties": {"osm_id": 1135736977, "highway": "traffic_signals"}, "geometry": {"type": "Point", "coordinates": [-73.6294813, 4.1474532]}}, {"type": "Feature", "properties": {"osm_id": 1141000286, "highway": "traffic_signals", "traffic_signals": "traffic_lights", "traffic_signals:direction": "both"}, "geometry": {"type": "Point", "coordinates": [-73.6279196, 4.1312461]}}, {"type": "Feature", "properties": {"osm_id": 1230072264, "highway": "traffic_signals", "traffic_signals": "signal"}, "geometry": {"type": "Point", "coordinates": [-73.6303121, 4.1153276]}}, {"type": "Feature", "properties": {"osm_id": 1232475844, "highway": "traffic_signals"}, "geometry": {"type": "Point", "coordinates": [-73.6336603, 4.1329067]}}, {"type": "Feature", "properties": {"osm_id": 1234207684, "highway": "traffic_signals", "traffic_signals": "signal", "traffic_signals:direction": "forward"}, "geometry": {"type": "Point", "coordinates": [-73.6213296, 4.1390349]}}, {"type": "Feature", "properties": {"osm_id": 1240035714, "highway": "traffic_signals"}, "geometry": {"type": "Point", "coordinates": [-73.602885, 4.1385843]}}, {"type": "Feature", "properties": {"osm_id": 1703541484, "highway": "traffic_signals", "traffic_signals": "signal", "traffic_signals:direction": "forward"}, "geometry": {"type": "Point", "coordinates": [-73.6172547, 4.1473124]}}, {"type": "Feature", "properties": {"osm_id": 2495637899, "highway": "traffic_signals", "traffic_signals": "signal"}, "geometry": {"type": "Point", "coordinates": [-73.6302295, 4.115355]}}, {"type": "Feature", "properties": {"osm_id": 2495667965, "highway": "traffic_signals", "traffic_signals": "signal"}, "geometry": {"type": "Point", "coordinates": [-73.6303509, 4.1154649]}}, {"type": "Feature", "properties": {"osm_id": 3207113834, "highway": "traffic_signals", "traffic_signals": "signal", "traffic_signals:direction": "forward"}, "geometry": {"type": "Point", "coordinates": [-73.6303958, 4.1318227]}}, {"type": "Feature", "properties": {"osm_id": 3214723587, "highway": "traffic_signals", "traffic_signals": "signal"}, "geometry": {"type": "Point", "coordinates": [-73.6302692, 4.1154915]}}, {"type": "Feature", "properties": {"osm_id": 3255896496, "highway": "traffic_signals", "traffic_signals": "signal"}, "geometry": {"type": "Point", "coordinates": [-73.6364454, 4.1469372]}}, {"type": "Feature", "properties": {"osm_id": 5186774436, "highway": "traffic_signals", "traffic_signals": "signal"}, "geometry": {"type": "Point", "coordinates": [-73.6343408, 4.1159863]}}, {"type": "Feature", "properties": {"osm_id": 5186774463, "highway": "traffic_signals", "traffic_signals": "signal"}, "geometry": {"type": "Point", "coordinates": [-73.6343734, 4.1158084]}}, {"type": "Feature", "properties": {"osm_id": 5186774466, "highway": "traffic_signals", "traffic_signals": "signal"}, "geometry": {"type": "Point", "coordinates": [-73.6331928, 4.111035]}}, {"type": "Feature", "properties": {"osm_id": 5186774482, "highway": "traffic_signals", "traffic_signals": "signal"}, "geometry": {"type": "Point", "coordinates": [-73.6387461, 4.1181454]}}, {"type": "Feature", "properties": {"osm_id": 5186774483, "highway": "traffic_signals", "traffic_signals": "signal"}, "geometry": {"type": "Point", "coordinates": [-73.6386662, 4.1182716]}}, {"type": "Feature", "properties": {"osm_id": 5667765139, "highway": "traffic_signals", "traffic_signals": "signal"}, "geometry": {"type": "Point", "coordinates": [-73.6384716, 4.1092353]}}, {"type": "Feature", "properties": {"osm_id": 5999198015, "highway": "traffic_signals", "traffic_signals": "signal"}, "geometry": {"type": "Point", "coordinates": [-73.6332718, 4.11094]}}, {"type": "Feature", "properties": {"osm_id": 7095900112, "highway": "traffic_signals", "traffic_signals": "signal"}, "geometry": {"type": "Point", "coordinates": [-73.6331731, 4.1109361]}}, {"type": "Feature", "properties": {"osm_id": 8317079783, "highway": "traffic_signals", "traffic_signals": "traffic_lights", "traffic_signals:direction": "forward"}, "geometry": {"type": "Point", "coordinates": [-73.6376993, 4.1315784]}}, {"type": "Feature", "properties": {"osm_id": 8317201298, "highway": "traffic_signals"}, "geometry": {"type": "Point", "coordinates": [-73.6322973, 4.1323299]}}, {"type": "Feature", "properties": {"osm_id": 8317282762, "highway": "traffic_signals", "traffic_signals": "signal", "traffic_signals:direction": "forward"}, "geometry": {"type": "Point", "coordinates": [-73.6214157, 4.1390551]}}, {"type": "Feature", "properties": {"osm_id": 8317282763, "highway": "traffic_signals", "traffic_signals": "signal", "traffic_signals:direction": "forward"}, "geometry": {"type": "Point", "coordinates": [-73.6214284, 4.138994]}}, {"type": "Feature", "properties": {"osm_id": 8317282810, "highway": "traffic_signals", "traffic_signals": "signal", "traffic_signals:direction": "forward"}, "geometry": {"type": "Point", "coordinates": [-73.6380022, 4.1298057]}}, {"type": "Feature", "properties": {"osm_id": 8944758053, "highway": "traffic_signals"}, "geometry": {"type": "Point", "coordinates": [-73.6547703, 4.1091142]}}, {"type": "Feature", "properties": {"osm_id": 9274756145, "highway": "traffic_signals", "traffic_signals": "signal"}, "geometry": {"type": "Point", "coordinates": [-73.6342442, 4.1159342]}}, {"type": "Feature", "properties": {"osm_id": 9274756146, "highway": "traffic_signals", "traffic_signals": "signal"}, "geometry": {"type": "Point", "coordinates": [-73.6342782, 4.1157634]}}, {"type": "Feature", "properties": {"osm_id": 9683510122, "crossing": "traffic_signals", "highway": "traffic_signals"}, "geometry": {"type": "Point", "coordinates": [-73.6367527, 4.1338553]}}, {"type": "Feature", "properties": {"osm_id": 9683510123, "crossing": "traffic_signals", "highway": "traffic_signals"}, "geometry": {"type": "Point", "coordinates": [-73.6367457, 4.1338761]}}, {"type": "Feature", "properties": {"osm_id": 9683510128, "crossing": "traffic_signals", "highway": "traffic_signals"}, "geometry": {"type": "Point", "coordinates": [-73.6364882, 4.1338509]}}, {"type": "Feature", "properties": {"osm_id": 9683510129, "crossing": "traffic_signals", "highway": "traffic_signals"}, "geometry": {"type": "Point", "coordinates": [-73.6364836, 4.1338622]}}, {"type": "Feature", "properties": {"osm_id": 13643676818, "highway": "traffic_signals", "traffic_signals": "signal", "traffic_signals:direction": "forward"}, "geometry": {"type": "Point", "coordinates": [-73.6366432, 4.1493132]}}, {"type": "Feature", "properties": {"osm_id": 13643676819, "highway": "traffic_signals", "traffic_signals": "signal", "traffic_signals:direction": "forward"}, "geometry": {"type": "Point", "coordinates": [-73.6363932, 4.149461]}}, {"type": "Feature", "properties": {"osm_id": 13643676820, "highway": "traffic_signals", "traffic_signals": "signal", "traffic_signals:direction": "forward"}, "geometry": {"type": "Point", "coordinates": [-73.6363902, 4.1494725]}}, {"type": "Feature", "properties": {"osm_id": 13643676822, "highway": "traffic_signals", "traffic_signals": "signal", "traffic_signals:direction": "forward"}, "geometry": {"type": "Point", "coordinates": [-73.6351482, 4.1489845]}}, {"type": "Feature", "properties": {"osm_id": 13643676823, "highway": "traffic_signals", "traffic_signals": "signal", "traffic_signals:direction": "forward"}, "geometry": {"type": "Point", "coordinates": [-73.6350635, 4.1489395]}}, {"type": "Feature", "properties": {"osm_id": 13643676824, "highway": "traffic_signals", "traffic_signals": "signal", "traffic_signals:direction": "forward"}, "geometry": {"type": "Point", "coordinates": [-73.6350087, 4.1490465]}}, {"type": "Feature", "properties": {"osm_id": 13643676825, "highway": "traffic_signals", "traffic_signals": "signal", "traffic_signals:direction": "forward"}, "geometry": {"type": "Point", "coordinates": [-73.6350968, 4.1490943]}}]}